[{"OBJECT_NAME":"STARLINK-5994","OBJECT_ID":"2023-064K","EPOCH":"2026-03-09T14:38:24.016416","MEAN_MOTION":14.98326692,"ECCENTRICITY":0.0003007,"INCLINATION":70.0007,"RA_OF_ASC_NODE":144.679,"ARG_OF_PERICENTER":269.9767,"MEAN_ANOMALY":90.1047,"EPHEMERIS_TYPE":0,"CLASSIFICATION_TYPE":"U","NORAD_CAT_ID":56457,"ELEMENT_SET_NO":999,"REV_AT_EPOCH":15523,"BSTAR":-5.1382e-5,"MEAN_MOTION_DOT":-7.06e-6,"MEAN_MOTION_DDOT":0},{"OBJECT_NAME":"CZ-6A DEB","OBJECT_ID":"2022-151PZ","EPOCH":"2026-03-09T15:54:05.043168","MEAN_MOTION":14.93335269,"ECCENTRICITY":0.00656982,"INCLINATION":98.627,"RA_OF_ASC_NODE":159.0323,"ARG_OF_PERICENTER":132.4095,"MEAN_ANOMALY":228.2707,"EPHEMERIS_TYPE":0,"CLASSIFICATION_TYPE":"U","NORAD_CAT_ID":54888,"ELEMENT_SET_NO":999,"REV_AT_EPOCH":17691,"BSTAR":0.0034425771,"MEAN_MOTION_DOT":0.00037754,"MEAN_MOTION_DDOT":0}]
